[
    {
        "Altitude(m)": 607911.0248666864,
        "Argument of Periapsis(deg)": 0.0,
        "Eccentricity": 0.0,
        "Inclination(deg)": 60.0,
        "Latitude(deg)": -14.293033474048823,
        "Longitude(deg)": -101.55735624017349,
        "Mean Anomaly(deg)": -163.6364,
        "RAAN(deg)": 170.00000000000003,
        "Satellite Name": "Test1 760",
        "Satellite Number": 760,
        "Semi-Major Axis(m)": 6980739.136638005,
        "Time(s)": 0
    },
    {
        "Altitude(m)": 608060.2590130327,
        "Argument of Periapsis(deg)": 0.00010418945913296404,
        "Eccentricity": 0.0,
        "Inclination(deg)": 60.0,
        "Latitude(deg)": -14.826694945082894,
        "Longitude(deg)": -101.26874682914973,
        "Mean Anomaly(deg)": -163.01629385453816,
        "RAAN(deg)": 169.99957995086027,
        "Satellite Name": "Test1 760",
        "Satellite Number": 760,
        "Semi-Major Axis(m)": 6980739.136638005,
        "Time(s)": 10
    }
]